GLOBALSTAR M063         
1 26081U 00008A   24341.54914810  .00000011  00000+0  13703-2 0  9998
2 26081  51.9955 258.9102 0004575 313.1409 218.1529 11.86165352134714
GLOBALSTAR M062         
1 26082U 00008B   24341.63127378 -.00000046  00000+0  37279-3 0  9998
2 26082  51.9858 302.0266 0007454  59.5485 111.0415 12.43453029472662
GLOBALSTAR M060         
1 26083U 00008C   24341.64457593  .00000007  00000+0  97811-3 0  9999
2 26083  52.0012 234.7561 0004367  85.7752 304.7520 12.17649698128918
GLOBALSTAR M064         
1 26084U 00008D   24341.38692230 -.00000068  00000+0  21780-3 0  9990
2 26084  52.0055   0.4378 0001580  51.3238 308.7736 11.88526126144178
GLOBALSTAR M065         
1 31571U 07020A   24341.59861780  .00000035  00000+0  77724-3 0  9991
2 31571  51.9891  92.4370 0009737 233.7784 139.5347 12.61981564809098
GLOBALSTAR M069         
1 31573U 07020C   24341.65984153 -.00000053  00000+0  30417-3 0  9999
2 31573  51.9969  51.2297 0001116 122.9390  11.2092 12.53306184810176
GLOBALSTAR M072         
1 31574U 07020D   24341.51496774 -.00000106  00000+0 -84474-4 0  9995
2 31574  52.0055 149.1150 0001310  93.4574 303.5971 12.34773403808577
GLOBALSTAR M071         
1 31576U 07020F   24341.62216074 -.00000078  00000+0  14453-3 0  9998
2 31576  52.0085  53.3743 0000600  86.0767  61.3814 12.56567142471418
